SILVERSAT               
1 66909U 98067XV  26058.39881015  .00152013  00000+0  13108-2 0  9992
2 66909  51.6259 117.4322 0005065  19.3067 340.8120 15.68246517 13571
ISS OBJECT XW           
1 66910U 98067XW  26058.56547061  .00106222  00000+0  10225-2 0  9991
2 66910  51.6258 117.0407 0004582  30.4087 329.7173 15.65703469 13598
ISS OBJECT XX           
1 66911U 98067XX  26058.85831495  .00185954  00000+0  14480-2 0  9997
2 66911  51.6226 114.4867 0006714  28.0055 332.1302 15.70587214 13644
ISS OBJECT XY           
1 66912U 98067XY  26058.54118509  .00070355  00000+0  79847-3 0  9995
2 66912  51.6275 118.3910 0002576  36.5071 323.6098 15.61698876 13560
ISS OBJECT XZ           
1 67683U 98067XZ  26058.87198455  .00036099  00000+0  61543-3 0  9996
2 67683  51.6314 120.5995 0009656 153.2711 206.8777 15.50956488  3268
GXIBA-1                 
1 67684U 98067YA  26058.47160865  .00067855  00000+0  10797-2 0  9995
2 67684  51.6305 122.4273 0011159 143.0590 217.1170 15.52586830  3200
CORAL                   
1 67685U 98067YB  26058.41854746  .00040910  00000+0  68987-3 0  9996
2 67685  51.6318 122.8225 0011653 147.7216 212.4489 15.51180735  3193
ISS OBJECT YC           
1 67686U 98067YC  26058.48029034  .00049428  00000+0  82192-3 0  9995
2 67686  51.6315 122.4856 0007654 116.6390 243.5385 15.51530870  3202
LEOPARD                 
1 67687U 98067YD  26058.87059660  .00037064  00000+0  62918-3 0  9994
2 67687  51.6315 120.5917 0007688 121.4598 238.7144 15.51082047  3185
ISS OBJECT YE           
1 67688U 98067YE  26058.41703609  .00043696  00000+0  73242-3 0  9994
2 67688  51.6320 122.8134 0007619 117.1331 243.0436 15.51362636  3110
CREW DRAGON 12          
1 67796U 26031A   26058.89712273  .00011820  00000+0  22726-3 0  9990
2 67796  51.6325 120.7666 0008321 140.4027 219.7571 15.48349372554551
